DUCHIFAT-1              
1 40021U 14033M   26185.71700957  .00213562  00000+0  18351-2 0  9994
2 40021  98.0425 247.3916 0000551 273.4953  86.6243 15.68680703658498
NANOSATC-BR1            
1 40024U 14033Q   26186.03967014  .00031872  00000+0  10283-2 0  9990
2 40024  98.0709 220.0161 0005239 120.9121 239.2635 15.32077751656715
QB50P1                  
1 40025U 14033R   26185.74556599  .00013753  00000+0  66809-3 0  9994
2 40025  98.0964 198.1255 0009636 155.8537 204.3149 15.18544565655696
DTUSAT-2                
1 40030U 14033W   26185.93729946  .00011990  00000+0  64036-3 0  9990
2 40030  98.0874 184.7942 0008461 162.8514 197.3004 15.15257817655378
QB50P2                  
1 40032U 14033Y   26185.92988667  .00012504  00000+0  66464-3 0  9997
2 40032  98.0760 183.9176 0009250 112.0919 248.1295 15.15408742655357
PERSEUS-M1              
1 40039U 14033AF  26186.09952361  .00001842  00000+0  17090-3 0  9999
2 40039  97.9646 130.5264 0010309 234.1657 125.8606 14.95692315653312
POLYITAN-1              
1 40042U 14033AJ  26186.06105418  .00032793  00000+0  99713-3 0  9994
2 40042  98.0935 214.0203 0008541  92.3372 267.8847 15.33942082656334
TIGRISAT                
1 40043U 14033AK  26185.36321051  .00002060  00000+0  24134-3 0  9999
2 40043  97.7854 334.9834 0049584  19.9094 340.4041 14.85224756648175
CANX-4                  
1 40055U 14034C   26186.12014602  .00001344  00000+0  17946-3 0  9996
2 40055  98.3098  62.0898 0011871 318.3927  41.6381 14.81299944647187
CANX-5                  
1 40056U 14034D   26185.37534026  .00001146  00000+0  15411-3 0  9995
2 40056  98.3101  61.3623 0011902 321.2001  38.8355 14.81314200637880
GONETS-M 10             
1 40063U 14036C   26186.34244341  .00000169  00000+0  11485-2 0  9991
2 40063  82.5128 296.3981 0023003 102.8004 257.5648 12.42946528544500
METEOR-M 2              
1 40069U 14037A   26186.23580755  .00000228  00000+0  12342-3 0  9998
2 40069  98.5127 161.3360 0005788 357.3175   2.7971 14.21467326621889
DX1                     
1 40071U 14037C   26186.29164031  .00003133  00000+0  33096-3 0  9999
2 40071  98.3878 149.0936 0006395 204.6100 155.4812 14.90043289648807
UKUBE-1                 
1 40074U 14037F   26185.95047171  .00014502  00000+0  80554-3 0  9992
2 40074  98.4244 191.0920 0003276 104.6577 255.5016 15.13840631651242
GAOFEN-2                
1 40118U 14049A   26186.28437424  .00001298  00000+0  17479-3 0  9999
2 40118  98.0097 250.4740 0007510 163.6086 196.5370 14.80921432641910
BRITE-PL2 (HEWELIUSZ)   
1 40119U 14049B   26186.24822327  .00002652  00000+0  24959-3 0  9992
2 40119  97.9113 298.3892 0014962  53.5962 306.6636 14.94663268644148
CBERS 4                 
1 40336U 14079A   26186.29909100  .00000085  00000+0  44110-4 0  9996
2 40336  98.3517 242.5621 0001205  51.9750 308.1545 14.35514186606554
SMAP                    
1 40376U 15003A   26186.19953154  .00000595  00000+0  12429-3 0  9998
2 40376  98.1278 193.0390 0001513  98.5585 261.5789 14.63383694610251
GONETS-M 11             
1 40552U 15020A   26186.28130698  .00000039  00000+0  20750-3 0  9992
2 40552  82.4859  19.7142 0015739 326.1610  33.8464 12.42878192510987
GONETS-M 12             
1 40553U 15020B   26186.25460203 -.00000082  00000+0 -66575-3 0  9993
2 40553  82.4891  20.8595 0014497 310.5149  49.4667 12.42891515510974
GONETS-M 13             
1 40554U 15020C   26186.30888331 -.00000083  00000+0 -67062-3 0  9999
2 40554  82.4854  19.4354 0012912 294.7043  65.2692 12.42871289510955
DMC3-FM1                
1 40715U 15032A   26186.25452271  .00001172  00000+0  14081-3 0  9996
2 40715  97.6434  50.7187 0005802  10.6765 349.4573 14.85761032592592
DMC3-FM2                
1 40716U 15032B   26186.27650152  .00000583  00000+0  73032-4 0  9994
2 40716  97.6488  52.3260 0006558  14.0575 346.0822 14.85766120592591
DMC3-FM3                
1 40717U 15032C   26186.29995873  .00000205  00000+0  29479-4 0  9996
2 40717  97.6539  54.1128 0005696  15.2812 344.8575 14.85752612592605
CARBONITE 1 (CBNT-1)    
1 40718U 15032D   26186.32507698  .00002892  00000+0  35607-3 0  9998
2 40718  97.6521   3.6321 0013129 231.2252 128.7791 14.83647852592032
LILACSAT-2              
1 40908U 15049K   26186.26392541  .00024281  00000+0  40290-3 0  9999
2 40908  97.4623 223.7972 0007523 172.1339 188.0033 15.52087952598558
